BEESAT-4                
1 41619U 16040W   21063.23053568  .00003309  00000-0  13528-3 0  9993
2 41619  97.2843 122.2245 0010284 352.7316   7.3771 15.25002354248978
CAS-2T & KS-1Q          
1 41847U 16066G   21063.69933324  .00000180  00000-0  37115-4 0  9994
2 41847  98.6166 122.3271 0365667 172.8617 187.7985 14.38153954226823
NAYIF-1 (EO-88)         
1 42017U 17008BX  21063.44781592  .00003872  00000-0  14610-3 0  9997
2 42017  97.3275 132.9074 0007654 116.0382 244.1647 15.27605142225222
ZHUHAI-1 02 (CAS-4B)    
1 42759U 17034B   21063.78814811  .00000526  00000-0  45101-4 0  9990
2 42759  43.0177  36.4440 0009924 236.8702 194.3519 15.10095326205320
ZHUHAI-1 01 (CAS-4A)    
1 42761U 17034D   21063.78468964  .00000509  00000-0  43994-4 0  9996
2 42761  43.0181  35.5931 0010591 237.3905 192.8920 15.10176200205326
MAX VALIER SAT          
1 42778U 17036P   21063.80259746  .00001726  00000-0  75597-4 0  9991
2 42778  97.2703 115.7830 0012112 177.3080 182.8224 15.23268603205354
RADFXSAT (FOX-1B)       
1 43017U 17073E   21063.50091884  .00001218  00000-0  10007-3 0  9993
2 43017  97.7146 331.6201 0254177 282.8524  74.4405 14.79363217177602
FOX-1D (AO-92)          
1 43137U 18004AC  21063.48410386  .00002501  00000-0  10346-3 0  9992
2 43137  97.4162 138.5689 0008006 211.5990 148.4768 15.24873825174667
DIWATA-2B               
1 43678U 18084H   21063.81301781 -.00000258  00000-0 -19841-4 0  9994
2 43678  97.9076 188.6582 0011037  43.4701 316.7395 14.91710774127833
ES'HAIL 2               
1 43700U 18090A   21063.26598605  .00000134  00000-0  00000-0 0  9993
2 43700   0.0181 140.8379 0002435 243.1890 259.7321  1.00272017  8310
FOX-1CLIFF (AO-95)      
1 43770U 18099N   21063.45411000  .00000398  00000-0  41307-4 0  9994
2 43770  97.6759 135.9145 0015542  52.7781 307.4856 14.95213982122766
ITASAT 1                
1 43786U 18099AE  21063.46133935  .00000501  00000-0  50302-4 0  9991
2 43786  97.6776 136.5262 0016053  46.4464 313.8087 14.95522397122798
JY1SAT (JO-97)          
1 43803U 18099AX  21063.44172210  .00000183  00000-0  21505-4 0  9997
2 43803  97.6741 136.2731 0016102  46.3267 313.9285 14.95748229122798
UWE-4                   
1 43880U 18111E   21063.69632703  .00001226  00000-0  11210-3 0  9992
2 43880  97.6938 333.1880 0014013  94.2303 266.0520 14.96749449117415
PSAT2 (NO-104)          
1 44354U 19036R   21063.49378926  .00022995  00000-0  31727-3 0  9999
2 44354  28.5305 105.3001 0338350 220.4332 137.0649 15.10097638 93072
BRICSAT2 (NO-103)       
1 44355U 19036S   21063.33842461  .00049047  00000-0  59263-3 0  9995
2 44355  28.5298  76.4365 0291543 267.3925  89.3269 15.22214498 93351
JAISAT-1                
1 44419U 19038F   21063.32684554  .00002027  00000-0  11667-3 0  9997
2 44419  97.5758  28.5245 0020115 318.4685  41.5017 15.13442215 91898
DUCHIFAT-3              
1 44854U 19089C   21063.24539980  .00000776  00000-0  68663-4 0  9997
2 44854  36.9694   2.7487 0008681 358.5612   1.5117 14.99355000 67302
RS-44 & BREEZE-KM R/B   
1 44909U 19096E   21063.31526229  .00000038  00000-0  11060-3 0  9995
2 44909  82.5249 182.6594 0216882 339.2052  20.0324 12.79708651 55393
ORBITAL FACTORY 2 (OF-2)
1 45113U 19071C   21063.35358868  .00006055  00000-0  18668-3 0  9998
2 45113  51.6418 186.7973 0011808 273.7709  86.1923 15.34931374 61023
HUSKYSAT-1 (HO-107)     
1 45119U 19071J   21063.43397695  .00004583  00000-0  14365-3 0  9998
2 45119  51.6410 185.8319 0011109 270.6738  89.2971 15.35025574 61032
BY70-2                  
1 45857U 20042B   21063.76629455  .00001268  00000-0  18818-3 0  9999
2 45857  97.9915 140.5972 0011853 182.5919 177.5239 14.76733331 36092
SALSAT                  
1 46495U 20068K   21063.56759615  .00001366  00000-0  10475-3 0  9996
2 46495  97.6846   1.7438 0018011  67.3268 292.9859 15.03366251 23579
BY70-3                  
1 46839U 20079N   21063.83937764  .00003941  00000-0  12625-3 0  9993
2 46839  97.2508 139.7805 0006390 207.7725 260.5684 15.32938485 18170
RADFXSAT-2 (AO-109)     
1 47311U 21002C   21063.27791731  .00001693  00000-0  86799-4 0  9992
2 47311  60.6853 324.8087 0019007 336.1786  23.8418 15.21305549  6860
UVSQ-SAT                
1 47438U 21006AB  21063.42561466  .00001404  00000-0  83288-4 0  9993
2 47438  97.5013 126.4729 0014426 100.2101 260.0757 15.12892717  6170
